KUIPER-00251            
1 67156U 25301Z   26003.90736031  .00032624  00000+0  95247-3 0  9992
2 67156  51.8671  18.3176 0008763 161.9636 198.1662 15.34995474  3969
KUIPER-00252            
1 67157U 25301AA  26003.91345638  .00029085  00000+0  86011-3 0  9999
2 67157  51.8660  18.3558 0009922 173.7760 186.3351 15.34639684  3770
KUIPER-00261            
1 67158U 25301AB  26003.89917863  .00034003  00000+0  96649-3 0  9996
2 67158  51.8705  18.2679 0006324 146.1665 213.9726 15.35832386  3773
KUIPER-00265            
1 67159U 25301AC  26003.88767388 -.00055440  00000+0 -15796-2 0  9994
2 67159  51.8744  18.1929 0002038 117.9004 242.2189 15.35572769  3803
