<?xml version="1.0" encoding="UTF-8"?>
<ndm xmlns:xsi="http://www.w3.org/2001/XMLSchema-instance" xsi:noNamespaceSchemaLocation="https://sanaregistry.org/r/ndmxml_unqualified/ndmxml-2.0.0-master-2.0.xsd">
<omm id="CCSDS_OMM_VERS" version="2.0">
<header><CREATION_DATE/><ORIGINATOR/></header><body><segment><metadata><OBJECT_NAME>KUIPER-00251</OBJECT_NAME><OBJECT_ID>2025-301Z</OBJECT_ID><CENTER_NAME>EARTH</CENTER_NAME><REF_FRAME>TEME</REF_FRAME><TIME_SYSTEM>UTC</TIME_SYSTEM><MEAN_ELEMENT_THEORY>SGP4</MEAN_ELEMENT_THEORY></metadata><data><meanElements><EPOCH>2026-01-03T21:46:35.930784</EPOCH><MEAN_MOTION>15.34995474</MEAN_MOTION><ECCENTRICITY>.00087638</ECCENTRICITY><INCLINATION>51.8671</INCLINATION><RA_OF_ASC_NODE>18.3176</RA_OF_ASC_NODE><ARG_OF_PERICENTER>161.9636</ARG_OF_PERICENTER><MEAN_ANOMALY>198.1662</MEAN_ANOMALY></meanElements><tleParameters><EPHEMERIS_TYPE>0</EPHEMERIS_TYPE><CLASSIFICATION_TYPE>U</CLASSIFICATION_TYPE><NORAD_CAT_ID>67156</NORAD_CAT_ID><ELEMENT_SET_NO>999</ELEMENT_SET_NO><REV_AT_EPOCH>396</REV_AT_EPOCH><BSTAR>.9524724E-3</BSTAR><MEAN_MOTION_DOT>.32624E-3</MEAN_MOTION_DOT><MEAN_MOTION_DDOT>0</MEAN_MOTION_DDOT></tleParameters></data></segment></body></omm>
<omm id="CCSDS_OMM_VERS" version="2.0">
<header><CREATION_DATE/><ORIGINATOR/></header><body><segment><metadata><OBJECT_NAME>KUIPER-00252</OBJECT_NAME><OBJECT_ID>2025-301AA</OBJECT_ID><CENTER_NAME>EARTH</CENTER_NAME><REF_FRAME>TEME</REF_FRAME><TIME_SYSTEM>UTC</TIME_SYSTEM><MEAN_ELEMENT_THEORY>SGP4</MEAN_ELEMENT_THEORY></metadata><data><meanElements><EPOCH>2026-01-03T21:55:22.631232</EPOCH><MEAN_MOTION>15.34639684</MEAN_MOTION><ECCENTRICITY>.0009922</ECCENTRICITY><INCLINATION>51.8660</INCLINATION><RA_OF_ASC_NODE>18.3558</RA_OF_ASC_NODE><ARG_OF_PERICENTER>173.7760</ARG_OF_PERICENTER><MEAN_ANOMALY>186.3351</MEAN_ANOMALY></meanElements><tleParameters><EPHEMERIS_TYPE>0</EPHEMERIS_TYPE><CLASSIFICATION_TYPE>U</CLASSIFICATION_TYPE><NORAD_CAT_ID>67157</NORAD_CAT_ID><ELEMENT_SET_NO>999</ELEMENT_SET_NO><REV_AT_EPOCH>377</REV_AT_EPOCH><BSTAR>.86011332E-3</BSTAR><MEAN_MOTION_DOT>.29085E-3</MEAN_MOTION_DOT><MEAN_MOTION_DDOT>0</MEAN_MOTION_DDOT></tleParameters></data></segment></body></omm>
<omm id="CCSDS_OMM_VERS" version="2.0">
<header><CREATION_DATE/><ORIGINATOR/></header><body><segment><metadata><OBJECT_NAME>KUIPER-00261</OBJECT_NAME><OBJECT_ID>2025-301AB</OBJECT_ID><CENTER_NAME>EARTH</CENTER_NAME><REF_FRAME>TEME</REF_FRAME><TIME_SYSTEM>UTC</TIME_SYSTEM><MEAN_ELEMENT_THEORY>SGP4</MEAN_ELEMENT_THEORY></metadata><data><meanElements><EPOCH>2026-01-03T21:34:49.033632</EPOCH><MEAN_MOTION>15.35832386</MEAN_MOTION><ECCENTRICITY>.00063247</ECCENTRICITY><INCLINATION>51.8705</INCLINATION><RA_OF_ASC_NODE>18.2679</RA_OF_ASC_NODE><ARG_OF_PERICENTER>146.1665</ARG_OF_PERICENTER><MEAN_ANOMALY>213.9726</MEAN_ANOMALY></meanElements><tleParameters><EPHEMERIS_TYPE>0</EPHEMERIS_TYPE><CLASSIFICATION_TYPE>U</CLASSIFICATION_TYPE><NORAD_CAT_ID>67158</NORAD_CAT_ID><ELEMENT_SET_NO>999</ELEMENT_SET_NO><REV_AT_EPOCH>377</REV_AT_EPOCH><BSTAR>.96648793E-3</BSTAR><MEAN_MOTION_DOT>.34003E-3</MEAN_MOTION_DOT><MEAN_MOTION_DDOT>0</MEAN_MOTION_DDOT></tleParameters></data></segment></body></omm>
<omm id="CCSDS_OMM_VERS" version="2.0">
<header><CREATION_DATE/><ORIGINATOR/></header><body><segment><metadata><OBJECT_NAME>KUIPER-00265</OBJECT_NAME><OBJECT_ID>2025-301AC</OBJECT_ID><CENTER_NAME>EARTH</CENTER_NAME><REF_FRAME>TEME</REF_FRAME><TIME_SYSTEM>UTC</TIME_SYSTEM><MEAN_ELEMENT_THEORY>SGP4</MEAN_ELEMENT_THEORY></metadata><data><meanElements><EPOCH>2026-01-03T21:18:15.023232</EPOCH><MEAN_MOTION>15.35572769</MEAN_MOTION><ECCENTRICITY>.00020386</ECCENTRICITY><INCLINATION>51.8744</INCLINATION><RA_OF_ASC_NODE>18.1929</RA_OF_ASC_NODE><ARG_OF_PERICENTER>117.9004</ARG_OF_PERICENTER><MEAN_ANOMALY>242.2189</MEAN_ANOMALY></meanElements><tleParameters><EPHEMERIS_TYPE>0</EPHEMERIS_TYPE><CLASSIFICATION_TYPE>U</CLASSIFICATION_TYPE><NORAD_CAT_ID>67159</NORAD_CAT_ID><ELEMENT_SET_NO>999</ELEMENT_SET_NO><REV_AT_EPOCH>380</REV_AT_EPOCH><BSTAR>-.15796328E-2</BSTAR><MEAN_MOTION_DOT>-.5544E-3</MEAN_MOTION_DOT><MEAN_MOTION_DDOT>0</MEAN_MOTION_DDOT></tleParameters></data></segment></body></omm>
</ndm>
